{
  "links" : {
    "next" : "https://api.nasa.gov/neo/rest/v1/feed?start_date=2007-04-23&end_date=2007-04-23&detailed=true&api_key=t0TVs3DtDT2H8Oy2Zy8m2eVrNsAVKAexjcZXUckd",
    "prev" : "https://api.nasa.gov/neo/rest/v1/feed?start_date=2007-04-21&end_date=2007-04-21&detailed=true&api_key=t0TVs3DtDT2H8Oy2Zy8m2eVrNsAVKAexjcZXUckd",
    "self" : "https://api.nasa.gov/neo/rest/v1/feed?start_date=2007-04-22&end_date=2007-04-22&detailed=true&api_key=t0TVs3DtDT2H8Oy2Zy8m2eVrNsAVKAexjcZXUckd"
  },
  "element_count" : 3,
  "near_earth_objects" : {
    "2007-04-22" : [ {
      "links" : {
        "self" : "https://api.nasa.gov/neo/rest/v1/neo/3374390?api_key=t0TVs3DtDT2H8Oy2Zy8m2eVrNsAVKAexjcZXUckd"
      },
      "neo_reference_id" : "3374390",
      "name" : "(2007 HV4)",
      "nasa_jpl_url" : "http://ssd.jpl.nasa.gov/sbdb.cgi?sstr=3374390",
      "absolute_magnitude_h" : 28.7,
      "estimated_diameter" : {
        "kilometers" : {
          "estimated_diameter_min" : 0.0048367649,
          "estimated_diameter_max" : 0.0108153351
        },
        "meters" : {
          "estimated_diameter_min" : 4.8367648822,
          "estimated_diameter_max" : 10.8153350678
        },
        "miles" : {
          "estimated_diameter_min" : 0.0030054254,
          "estimated_diameter_max" : 0.0067203356
        },
        "feet" : {
          "estimated_diameter_min" : 15.8686516961,
          "estimated_diameter_max" : 35.4833839037
        }
      },
      "is_potentially_hazardous_asteroid" : false,
      "close_approach_data" : [ {
        "close_approach_date" : "2007-04-22",
        "epoch_date_close_approach" : 1177225200000,
        "relative_velocity" : {
          "kilometers_per_second" : "8.6893638658",
          "kilometers_per_hour" : "31281.7099169304",
          "miles_per_hour" : "19437.2380314393"
        },
        "miss_distance" : {
          "astronomical" : "0.0037055758",
          "lunar" : "1.4414689541",
          "kilometers" : "554346.25",
          "miles" : "344454.78125"
        },
        "orbiting_body" : "Earth"
      } ],
      "orbital_data" : {
        "orbit_id" : "10",
        "orbit_determination_date" : "2017-04-06 09:06:32",
        "orbit_uncertainty" : "7",
        "minimum_orbit_intersection" : ".00441937",
        "jupiter_tisserand_invariant" : "3.884",
        "epoch_osculation" : "2458000.5",
        "eccentricity" : ".4707077355951799",
        "semi_major_axis" : "1.832451054454946",
        "inclination" : "4.249148051028856",
        "ascending_node_longitude" : "209.5394879053958",
        "orbital_period" : "906.0392288955857",
        "perihelion_distance" : ".969902168023459",
        "perihelion_argument" : "30.50458736345109",
        "aphelion_distance" : "2.694999940886434",
        "perihelion_time" : "2457874.053595074979",
        "mean_anomaly" : "50.24142920223777",
        "mean_motion" : ".3973337892210486",
        "equinox" : "J2000"
      }
    }, {
      "links" : {
        "self" : "https://api.nasa.gov/neo/rest/v1/neo/3403074?api_key=t0TVs3DtDT2H8Oy2Zy8m2eVrNsAVKAexjcZXUckd"
      },
      "neo_reference_id" : "3403074",
      "name" : "(2008 CC175)",
      "nasa_jpl_url" : "http://ssd.jpl.nasa.gov/sbdb.cgi?sstr=3403074",
      "absolute_magnitude_h" : 21.3,
      "estimated_diameter" : {
        "kilometers" : {
          "estimated_diameter_min" : 0.1460679643,
          "estimated_diameter_max" : 0.3266178974
        },
        "meters" : {
          "estimated_diameter_min" : 146.0679642714,
          "estimated_diameter_max" : 326.6178974458
        },
        "miles" : {
          "estimated_diameter_min" : 0.090762397,
          "estimated_diameter_max" : 0.2029508896
        },
        "feet" : {
          "estimated_diameter_min" : 479.2256199,
          "estimated_diameter_max" : 1071.581062656
        }
      },
      "is_potentially_hazardous_asteroid" : false,
      "close_approach_data" : [ {
        "close_approach_date" : "2007-04-22",
        "epoch_date_close_approach" : 1177225200000,
        "relative_velocity" : {
          "kilometers_per_second" : "9.1580792331",
          "kilometers_per_hour" : "32969.0852392939",
          "miles_per_hour" : "20485.7074366046"
        },
        "miss_distance" : {
          "astronomical" : "0.3996083074",
          "lunar" : "155.4476318359",
          "kilometers" : "59780552",
          "miles" : "37145912"
        },
        "orbiting_body" : "Earth"
      } ],
      "orbital_data" : {
        "orbit_id" : "11",
        "orbit_determination_date" : "2017-04-06 09:04:18",
        "orbit_uncertainty" : "3",
        "minimum_orbit_intersection" : ".117339",
        "jupiter_tisserand_invariant" : "6.177",
        "epoch_osculation" : "2458000.5",
        "eccentricity" : ".501265883273445",
        "semi_major_axis" : ".9551998356394311",
        "inclination" : "10.17426490483964",
        "ascending_node_longitude" : "125.6630032060517",
        "orbital_period" : "340.9885416163991",
        "perihelion_distance" : ".4763907463249822",
        "perihelion_argument" : "166.4489850755155",
        "aphelion_distance" : "1.43400892495388",
        "perihelion_time" : "2458003.812750054569",
        "mean_anomaly" : "356.5025510417697",
        "mean_motion" : "1.055753950832131",
        "equinox" : "J2000"
      }
    }, {
      "links" : {
        "self" : "https://api.nasa.gov/neo/rest/v1/neo/3774009?api_key=t0TVs3DtDT2H8Oy2Zy8m2eVrNsAVKAexjcZXUckd"
      },
      "neo_reference_id" : "3774009",
      "name" : "(2017 HA1)",
      "nasa_jpl_url" : "http://ssd.jpl.nasa.gov/sbdb.cgi?sstr=3774009",
      "absolute_magnitude_h" : 23.174,
      "estimated_diameter" : {
        "kilometers" : {
          "estimated_diameter_min" : 0.0616247225,
          "estimated_diameter_max" : 0.1377970686
        },
        "meters" : {
          "estimated_diameter_min" : 61.6247224961,
          "estimated_diameter_max" : 137.7970685958
        },
        "miles" : {
          "estimated_diameter_min" : 0.0382918154,
          "estimated_diameter_max" : 0.0856231023
        },
        "feet" : {
          "estimated_diameter_min" : 202.180854554,
          "estimated_diameter_max" : 452.0901345318
        }
      },
      "is_potentially_hazardous_asteroid" : false,
      "close_approach_data" : [ {
        "close_approach_date" : "2007-04-22",
        "epoch_date_close_approach" : 1177225200000,
        "relative_velocity" : {
          "kilometers_per_second" : "9.9477481233",
          "kilometers_per_hour" : "35811.8932437417",
          "miles_per_hour" : "22252.1177769238"
        },
        "miss_distance" : {
          "astronomical" : "0.1334109932",
          "lunar" : "51.8968734741",
          "kilometers" : "19958000",
          "miles" : "12401326"
        },
        "orbiting_body" : "Earth"
      } ],
      "orbital_data" : {
        "orbit_id" : "14",
        "orbit_determination_date" : "2017-06-24 06:19:51",
        "orbit_uncertainty" : "6",
        "minimum_orbit_intersection" : ".0952113",
        "jupiter_tisserand_invariant" : "4.662",
        "epoch_osculation" : "2458000.5",
        "eccentricity" : ".2231245053696101",
        "semi_major_axis" : "1.406027092132615",
        "inclination" : "18.49508982871804",
        "ascending_node_longitude" : "207.6823375302296",
        "orbital_period" : "608.9602716877233",
        "perihelion_distance" : "1.092307992664254",
        "perihelion_argument" : "15.72824993900821",
        "aphelion_distance" : "1.719746191600976",
        "perihelion_time" : "2457882.400086695763",
        "mean_anomaly" : "69.81731118795805",
        "mean_motion" : ".5911715701949914",
        "equinox" : "J2000"
      }
    } ]
  }
}